{"type": "FeatureCollection", "features": [ {"type": "Feature", "properties": {"norad_id": 40701, "name": "GAOFEN-8", "group": "resource", "lat": -43.47479493916174, "lon": -8.626260727567143, "alt_km": 460.76821662047587, "timestamp": "2025-12-25T22:42:16.653627+00:00", "meta": {"OBJECT_NAME": "GAOFEN-8", "OBJECT_ID": "2015-030A", "EPOCH": "2025-12-25T18:36:53.746848", "MEAN_MOTION": 15.39031863, "ECCENTRICITY": 0.0011429, "INCLINATION": 97.6904, "RA_OF_ASC_NODE": 178.556, "ARG_OF_PERICENTER": 93.6777, "MEAN_ANOMALY": 266.5775, "EPHEMERIS_TYPE": 0, "CLASSIFICATION_TYPE": "U", "NORAD_CAT_ID": 40701, "ELEMENT_SET_NO": 999, "REV_AT_EPOCH": 58471, "BSTAR": 0.0007501, "MEAN_MOTION_DOT": 0.00029044, "MEAN_MOTION_DDOT": 0}, "tle": {"line1": "1 40701U 15030A   25359.77562207  .00029044  00000+0  75010-3 0  9995", "line2": "2 40701  97.6904 178.5560 0011429  93.6777 266.5775 15.39031863584719"}}, "geometry": {"type": "Point", "coordinates": [-8.626260727567143, -43.47479493916174]}}, {"type": "Feature", "properties": {"norad_id": 40718, "name": "CARBONITE 1 (CBNT-1)", "group": "resource", "lat": 16.604387402185107, "lon": 178.11532474420068, "alt_km": 626.8024950401114, "timestamp": "2025-12-25T22:42:16.653638+00:00", "meta": {"OBJECT_NAME": "CARBONITE 1 (CBNT-1)", "OBJECT_ID": "2015-032D", "EPOCH": "2025-12-25T17:46:13.736928", "MEAN_MOTION": 14.82807441, "ECCENTRICITY": 0.0015425, "INCLINATION": 97.6406, "RA_OF_ASC_NODE": 180.213, "ARG_OF_PERICENTER": 139.4411, "MEAN_ANOMALY": 220.7955, "EPHEMERIS_TYPE": 0, "CLASSIFICATION_TYPE": "U", "NORAD_CAT_ID": 40718, "ELEMENT_SET_NO": 999, "REV_AT_EPOCH": 56363, "BSTAR": 0.00057873, "MEAN_MOTION_DOT": 4.642e-05, "MEAN_MOTION_DDOT": 0}, "tle": {"line1": "1 40718U 15032D   25359.74043677  .00004642  00000+0  57873-3 0  9991", "line2": "2 40718  97.6406 180.2130 0015425 139.4411 220.7955 14.82807441563631"}}, "geometry": {"type": "Point", "coordinates": [178.11532474420068, 16.604387402185107]}}, {"type": "Feature", "properties": {"norad_id": 40878, "name": "YAOGAN-27", "group": "resource", "lat": 77.20622490053468, "lon": -62.75658657818235, "alt_km": 1198.1429160257612, "timestamp": "2025-12-25T22:42:16.653648+00:00", "meta": {"OBJECT_NAME": "YAOGAN-27", "OBJECT_ID": "2015-040A", "EPOCH": "2025-12-25T18:38:21.992352", "MEAN_MOTION": 13.16061598, "ECCENTRICITY": 0.0007562, "INCLINATION": 100.1022, "RA_OF_ASC_NODE": 348.807, "ARG_OF_PERICENTER": 254.2475, "MEAN_ANOMALY": 105.7805, "EPHEMERIS_TYPE": 0, "CLASSIFICATION_TYPE": "U", "NORAD_CAT_ID": 40878, "ELEMENT_SET_NO": 999, "REV_AT_EPOCH": 49485, "BSTAR": -3.5794e-05, "MEAN_MOTION_DOT": -5.6e-07, "MEAN_MOTION_DDOT": 0}, "tle": {"line1": "1 40878U 15040A   25359.77664343 -.00000056  00000+0 -35794-4 0  9995", "line2": "2 40878 100.1022 348.8070 0007562 254.2475 105.7805 13.16061598494850"}}, "geometry": {"type": "Point", "coordinates": [-62.75658657818235, 77.20622490053468]}}, {"type": "Feature", "properties": {"norad_id": 40894, "name": "GAOFEN-9 01", "group": "resource", "lat": -76.15772866097743, "lon": 71.40000618924269, "alt_km": 622.3097940311054, "timestamp": "2025-12-25T22:42:16.653659+00:00", "meta": {"OBJECT_NAME": "GAOFEN-9 01", "OBJECT_ID": "2015-047A", "EPOCH": "2025-12-25T18:11:48.030720", "MEAN_MOTION": 14.82453411, "ECCENTRICITY": 0.0027331, "INCLINATION": 97.6526, "RA_OF_ASC_NODE": 38.1506, "ARG_OF_PERICENTER": 352.1214, "MEAN_ANOMALY": 7.9567, "EPHEMERIS_TYPE": 0, "CLASSIFICATION_TYPE": "U", "NORAD_CAT_ID": 40894, "ELEMENT_SET_NO": 999, "REV_AT_EPOCH": 55449, "BSTAR": 0.00015236, "MEAN_MOTION_DOT": 1.178e-05, "MEAN_MOTION_DDOT": 0}, "tle": {"line1": "1 40894U 15047A   25359.75819480  .00001178  00000+0  15236-3 0  9994", "line2": "2 40894  97.6526  38.1506 0027331 352.1214   7.9567 14.82453411554493"}}, "geometry": {"type": "Point", "coordinates": [71.40000618924269, -76.15772866097743]}}, {"type": "Feature", "properties": {"norad_id": 41026, "name": "YAOGAN-28", "group": "resource", "lat": -82.3388431108891, "lon": -114.54267967760943, "alt_km": 508.1613026668783, "timestamp": "2025-12-25T22:42:16.653669+00:00", "meta": {"OBJECT_NAME": "YAOGAN-28", "OBJECT_ID": "2015-064A", "EPOCH": "2025-12-25T18:23:03.333984", "MEAN_MOTION": 15.24557783, "ECCENTRICITY": 0.0012658, "INCLINATION": 97.2816, "RA_OF_ASC_NODE": 137.1925, "ARG_OF_PERICENTER": 84.7473, "MEAN_ANOMALY": 275.5209, "EPHEMERIS_TYPE": 0, "CLASSIFICATION_TYPE": "U", "NORAD_CAT_ID": 41026, "ELEMENT_SET_NO": 999, "REV_AT_EPOCH": 56423, "BSTAR": 0.00033602, "MEAN_MOTION_DOT": 8.225e-05, "MEAN_MOTION_DDOT": 0}, "tle": {"line1": "1 41026U 15064A   25359.76601081  .00008225  00000+0  33602-3 0  9995", "line2": "2 41026  97.2816 137.1925 0012658  84.7473 275.5209 15.24557783564238"}}, "geometry": {"type": "Point", "coordinates": [-114.54267967760943, -82.3388431108891]}}, {"type": "Feature", "properties": {"norad_id": 41038, "name": "YAOGAN-29", "group": "resource", "lat": -11.565317951100797, "lon": -158.49454063408132, "alt_km": 624.0288965125656, "timestamp": "2025-12-25T22:42:16.653679+00:00", "meta": {"OBJECT_NAME": "YAOGAN-29", "OBJECT_ID": "2015-069A", "EPOCH": "2025-12-25T18:36:16.612128", "MEAN_MOTION": 14.82897658, "ECCENTRICITY": 9.32e-05, "INCLINATION": 98.0207, "RA_OF_ASC_NODE": 22.9876, "ARG_OF_PERICENTER": 160.9608, "MEAN_ANOMALY": 199.164, "EPHEMERIS_TYPE": 0, "CLASSIFICATION_TYPE": "U", "NORAD_CAT_ID": 41038, "ELEMENT_SET_NO": 999, "REV_AT_EPOCH": 54492, "BSTAR": 0.00011145, "MEAN_MOTION_DOT": 8.49e-06, "MEAN_MOTION_DDOT": 0}, "tle": {"line1": "1 41038U 15069A   25359.77519227  .00000849  00000+0  11145-3 0  9996", "line2": "2 41038  98.0207  22.9876 0000932 160.9608 199.1640 14.82897658544924"}}, "geometry": {"type": "Point", "coordinates": [-158.49454063408132, -11.565317951100797]}}, {"type": "Feature", "properties": {"norad_id": 41167, "name": "KENT RIDGE 1", "group": "resource", "lat": -3.216163551006813, "lon": 101.00930523311101, "alt_km": 493.19235077267786, "timestamp": "2025-12-25T22:42:16.653690+00:00", "meta": {"OBJECT_NAME": "KENT RIDGE 1", "OBJECT_ID": "2015-077B", "EPOCH": "2025-12-25T16:28:00.882048", "MEAN_MOTION": 15.21731933, "ECCENTRICITY": 0.0008537, "INCLINATION": 14.9792, "RA_OF_ASC_NODE": 115.0675, "ARG_OF_PERICENTER": 313.4673, "MEAN_ANOMALY": 46.4939, "EPHEMERIS_TYPE": 0, "CLASSIFICATION_TYPE": "U", "NORAD_CAT_ID": 41167, "ELEMENT_SET_NO": 999, "REV_AT_EPOCH": 55461, "BSTAR": 0.00017413, "MEAN_MOTION_DOT": 4.822e-05, "MEAN_MOTION_DDOT": 0}, "tle": {"line1": "1 41167U 15077B   25359.68612132  .00004822  00000+0  17413-3 0  9996", "line2": "2 41167  14.9792 115.0675 0008537 313.4673  46.4939 15.21731933554619"}}, "geometry": {"type": "Point", "coordinates": [101.00930523311101, -3.216163551006813]}}, {"type": "Feature", "properties": {"norad_id": 41194, "name": "GAOFEN-4", "group": "resource", "lat": 0.20261581452568264, "lon": -179.0294761801461, "alt_km": 35774.88894624266, "timestamp": "2025-12-25T22:42:16.653702+00:00", "meta": {"OBJECT_NAME": "GAOFEN-4", "OBJECT_ID": "2015-083A", "EPOCH": "2025-12-25T18:48:31.585824", "MEAN_MOTION": 1.00269663, "ECCENTRICITY": 0.0002819, "INCLINATION": 0.2017, "RA_OF_ASC_NODE": 81.9193, "ARG_OF_PERICENTER": 93.7327, "MEAN_ANOMALY": 306.7256, "EPHEMERIS_TYPE": 0, "CLASSIFICATION_TYPE": "U", "NORAD_CAT_ID": 41194, "ELEMENT_SET_NO": 999, "REV_AT_EPOCH": 3679, "BSTAR": 0, "MEAN_MOTION_DOT": -3.13e-06, "MEAN_MOTION_DDOT": 0}, "tle": {"line1": "1 41194U 15083A   25359.78369891 -.00000313  00000+0  00000+0 0  9997", "line2": "2 41194   0.2017  81.9193 0002819  93.7327 306.7256  1.00269663 36790"}}, "geometry": {"type": "Point", "coordinates": [-179.0294761801461, 0.20261581452568264]}}, {"type": "Feature", "properties": {"norad_id": 41240, "name": "JASON-3", "group": "resource", "lat": -33.72837754181705, "lon": 112.791102027959, "alt_km": 1312.619734486957, "timestamp": "2025-12-25T22:42:16.653713+00:00", "meta": {"OBJECT_NAME": "JASON-3", "OBJECT_ID": "2016-002A", "EPOCH": "2025-12-25T17:18:22.137984", "MEAN_MOTION": 12.8762709, "ECCENTRICITY": 0.0007309, "INCLINATION": 66.0406, "RA_OF_ASC_NODE": 130.5323, "ARG_OF_PERICENTER": 271.5792, "MEAN_ANOMALY": 88.439, "EPHEMERIS_TYPE": 0, "CLASSIFICATION_TYPE": "U", "NORAD_CAT_ID": 41240, "ELEMENT_SET_NO": 999, "REV_AT_EPOCH": 46491, "BSTAR": 0.00013221, "MEAN_MOTION_DOT": -2.9e-07, "MEAN_MOTION_DDOT": 0}, "tle": {"line1": "1 41240U 16002A   25359.72108956 -.00000029  00000+0  13221-3 0  9995", "line2": "2 41240  66.0406 130.5323 0007309 271.5792  88.4390 12.87627090464912"}}, "geometry": {"type": "Point", "coordinates": [112.791102027959, -33.72837754181705]}}, {"type": "Feature", "properties": {"norad_id": 41335, "name": "SENTINEL-3A", "group": "resource", "lat": 72.46891551013505, "lon": -86.49214239378996, "alt_km": 795.0442863241296, "timestamp": "2025-12-25T22:42:16.653723+00:00", "meta": {"OBJECT_NAME": "SENTINEL-3A", "OBJECT_ID": "2016-011A", "EPOCH": "2025-12-25T15:28:49.823904", "MEAN_MOTION": 14.2673561, "ECCENTRICITY": 8.839e-05, "INCLINATION": 98.6297, "RA_OF_ASC_NODE": 64.4774, "ARG_OF_PERICENTER": 97.4385, "MEAN_ANOMALY": 262.6896, "EPHEMERIS_TYPE": 0, "CLASSIFICATION_TYPE": "U", "NORAD_CAT_ID": 41335, "ELEMENT_SET_NO": 999, "REV_AT_EPOCH": 51331, "BSTAR": 7.7011196e-05, "MEAN_MOTION_DOT": 1.43e-06, "MEAN_MOTION_DDOT": 0}, "tle": {"line1": "1 41335U 16011A   25359.64502111  .00000143  00000+0  77011-4 0  9996", "line2": "2 41335  98.6297  64.4774 0000883  97.4385 262.6896 14.26735610513313"}}, "geometry": {"type": "Point", "coordinates": [-86.49214239378996, 72.46891551013505]}}]}